STARLINK-6204           
1 56488U 23064AS  25345.25688764  .00000073  00000+0  13925-4 0  9994
2 56488  70.0003 327.5263 0003015 272.9798  87.1016 14.98338818142984
STARLINK-5923           
1 56489U 23064AT  25345.24436479  .00000264  00000+0  29887-4 0  9994
2 56489  69.9998 327.4805 0002897 269.1501  90.9326 14.98332784142985
STARLINK-5873           
1 56490U 23064AU  25345.26524452  .00000787  00000+0  73727-4 0  9999
2 56490  70.0004 327.5547 0002734 268.5791  91.5055 14.98341304142980
STARLINK-5842           
1 56491U 23064AV  25345.30695135  .00000395  00000+0  40932-4 0  9999
2 56491  70.0003 327.2985 0003047 271.6404  88.4406 14.98333612142996
STARLINK-5846           
1 56492U 23064AW  25345.30275016 -.00002248  00000+0 -18048-3 0  9995
2 56492  69.9998 327.2870 0003530 277.8752  82.2006 14.98373331142991
STARLINK-5841           
1 56493U 23064AX  25345.29003082 -.00000037  00000+0  47004-5 0  9995
2 56493  69.9994 307.3548 0002865 268.6782  91.4049 14.98331804143483
STARLINK-5530           
1 56494U 23064AY  25345.30293448 -.00001169  00000+0 -90164-4 0  9997
2 56494  70.0009 327.2841 0003272 273.2814  86.7971 14.98352578142999
STARLINK-5529           
1 56495U 23064AZ  25345.29442881  .00000247  00000+0  28467-4 0  9994
2 56495  70.0001 327.2542 0003038 269.8206  90.2605 14.98332111142991
STARLINK-5526           
1 56496U 23064BA  25345.29025888  .00000051  00000+0  12039-4 0  9990
2 56496  70.0002 327.2398 0002969 268.9429  91.1390 14.98331125142996
STARLINK-5527           
1 56497U 23064BB  25345.28625709  .00003204  00000+0  27621-3 0  9993
2 56497  69.9999 327.2260 0003247 269.8550  90.2237 14.98331288142992
STARLINK-5522           
1 56498U 23064BC  25345.29860354  .00000476  00000+0  47647-4 0  9991
2 56498  70.0002 327.2690 0003044 269.9265  90.1545 14.98332762142996
STARLINK-5775           
1 56503U 23065A   25345.22923049  .00000286  00000+0  36211-4 0  9997
2 56503  43.0056 331.3899 0001135 264.5745  95.4968 15.02535084143314
STARLINK-5716           
1 56504U 23065B   25345.02646469 -.00000957  00000+0 -55749-4 0  9998
2 56504  43.0053 332.4431 0001317 264.4706  95.5986 15.02544014143284
STARLINK-5763           
1 56505U 23065C   25345.02422564  .00002849  00000+0  22578-3 0  9990
2 56505  43.0028 332.4265 0001251 266.6748  93.3951 15.02550273143281
STARLINK-5340           
1 56506U 23065D   25345.23170811  .00000163  00000+0  27108-4 0  9991
2 56506  43.0052 318.3915 0001276 266.2631  93.8065 15.02533421143465
STARLINK-5333           
1 56507U 23065E   25345.22889286 -.00000737  00000+0 -39468-4 0  9995
2 56507  43.0050 292.3474 0001311 277.7594  82.3100 15.02539558143763
