[{"OBJECT_NAME":"STARLINK-6204","OBJECT_ID":"2023-064AS","EPOCH":"2025-12-11T06:09:55.092096","MEAN_MOTION":14.98338818,"ECCENTRICITY":0.0003015,"INCLINATION":70.0003,"RA_OF_ASC_NODE":327.5263,"ARG_OF_PERICENTER":272.9798,"MEAN_ANOMALY":87.1016,"EPHEMERIS_TYPE":0,"CLASSIFICATION_TYPE":"U","NORAD_CAT_ID":56488,"ELEMENT_SET_NO":999,"REV_AT_EPOCH":14298,"BSTAR":1.3925435e-5,"MEAN_MOTION_DOT":7.3e-7,"MEAN_MOTION_DDOT":0},{"OBJECT_NAME":"STARLINK-5923","OBJECT_ID":"2023-064AT","EPOCH":"2025-12-11T05:51:53.117856","MEAN_MOTION":14.98332784,"ECCENTRICITY":0.00028978,"INCLINATION":69.9998,"RA_OF_ASC_NODE":327.4805,"ARG_OF_PERICENTER":269.1501,"MEAN_ANOMALY":90.9326,"EPHEMERIS_TYPE":0,"CLASSIFICATION_TYPE":"U","NORAD_CAT_ID":56489,"ELEMENT_SET_NO":999,"REV_AT_EPOCH":14298,"BSTAR":2.9886527e-5,"MEAN_MOTION_DOT":2.64e-6,"MEAN_MOTION_DDOT":0},{"OBJECT_NAME":"STARLINK-5873","OBJECT_ID":"2023-064AU","EPOCH":"2025-12-11T06:21:57.126528","MEAN_MOTION":14.98341304,"ECCENTRICITY":0.00027345,"INCLINATION":70.0004,"RA_OF_ASC_NODE":327.5547,"ARG_OF_PERICENTER":268.5791,"MEAN_ANOMALY":91.5055,"EPHEMERIS_TYPE":0,"CLASSIFICATION_TYPE":"U","NORAD_CAT_ID":56490,"ELEMENT_SET_NO":999,"REV_AT_EPOCH":14298,"BSTAR":7.3727003e-5,"MEAN_MOTION_DOT":7.87e-6,"MEAN_MOTION_DDOT":0},{"OBJECT_NAME":"STARLINK-5842","OBJECT_ID":"2023-064AV","EPOCH":"2025-12-11T07:22:00.596640","MEAN_MOTION":14.98333612,"ECCENTRICITY":0.00030473,"INCLINATION":70.0003,"RA_OF_ASC_NODE":327.2985,"ARG_OF_PERICENTER":271.6404,"MEAN_ANOMALY":88.4406,"EPHEMERIS_TYPE":0,"CLASSIFICATION_TYPE":"U","NORAD_CAT_ID":56491,"ELEMENT_SET_NO":999,"REV_AT_EPOCH":14299,"BSTAR":4.0931874e-5,"MEAN_MOTION_DOT":3.95e-6,"MEAN_MOTION_DDOT":0},{"OBJECT_NAME":"STARLINK-5846","OBJECT_ID":"2023-064AW","EPOCH":"2025-12-11T07:15:57.613824","MEAN_MOTION":14.98373331,"ECCENTRICITY":0.00035303,"INCLINATION":69.9998,"RA_OF_ASC_NODE":327.287,"ARG_OF_PERICENTER":277.8752,"MEAN_ANOMALY":82.2006,"EPHEMERIS_TYPE":0,"CLASSIFICATION_TYPE":"U","NORAD_CAT_ID":56492,"ELEMENT_SET_NO":999,"REV_AT_EPOCH":14299,"BSTAR":-0.00018047869,"MEAN_MOTION_DOT":-2.248e-5,"MEAN_MOTION_DDOT":0},{"OBJECT_NAME":"STARLINK-5841","OBJECT_ID":"2023-064AX","EPOCH":"2025-12-11T06:57:38.662848","MEAN_MOTION":14.98331804,"ECCENTRICITY":0.00028659,"INCLINATION":69.9994,"RA_OF_ASC_NODE":307.3548,"ARG_OF_PERICENTER":268.6782,"MEAN_ANOMALY":91.4049,"EPHEMERIS_TYPE":0,"CLASSIFICATION_TYPE":"U","NORAD_CAT_ID":56493,"ELEMENT_SET_NO":999,"REV_AT_EPOCH":14348,"BSTAR":4.7004e-6,"MEAN_MOTION_DOT":-3.7e-7,"MEAN_MOTION_DDOT":0},{"OBJECT_NAME":"STARLINK-5530","OBJECT_ID":"2023-064AY","EPOCH":"2025-12-11T07:16:13.539072","MEAN_MOTION":14.98352578,"ECCENTRICITY":0.00032725,"INCLINATION":70.0009,"RA_OF_ASC_NODE":327.2841,"ARG_OF_PERICENTER":273.2814,"MEAN_ANOMALY":86.7971,"EPHEMERIS_TYPE":0,"CLASSIFICATION_TYPE":"U","NORAD_CAT_ID":56494,"ELEMENT_SET_NO":999,"REV_AT_EPOCH":14299,"BSTAR":-9.0164466e-5,"MEAN_MOTION_DOT":-1.169e-5,"MEAN_MOTION_DDOT":0},{"OBJECT_NAME":"STARLINK-5529","OBJECT_ID":"2023-064AZ","EPOCH":"2025-12-11T07:03:58.649184","MEAN_MOTION":14.98332111,"ECCENTRICITY":0.00030385,"INCLINATION":70.0001,"RA_OF_ASC_NODE":327.2542,"ARG_OF_PERICENTER":269.8206,"MEAN_ANOMALY":90.2605,"EPHEMERIS_TYPE":0,"CLASSIFICATION_TYPE":"U","NORAD_CAT_ID":56495,"ELEMENT_SET_NO":999,"REV_AT_EPOCH":14299,"BSTAR":2.8466681e-5,"MEAN_MOTION_DOT":2.47e-6,"MEAN_MOTION_DDOT":0},{"OBJECT_NAME":"STARLINK-5526","OBJECT_ID":"2023-064BA","EPOCH":"2025-12-11T06:57:58.367232","MEAN_MOTION":14.98331125,"ECCENTRICITY":0.00029696,"INCLINATION":70.0002,"RA_OF_ASC_NODE":327.2398,"ARG_OF_PERICENTER":268.9429,"MEAN_ANOMALY":91.139,"EPHEMERIS_TYPE":0,"CLASSIFICATION_TYPE":"U","NORAD_CAT_ID":56496,"ELEMENT_SET_NO":999,"REV_AT_EPOCH":14299,"BSTAR":1.2038619e-5,"MEAN_MOTION_DOT":5.1e-7,"MEAN_MOTION_DDOT":0},{"OBJECT_NAME":"STARLINK-5527","OBJECT_ID":"2023-064BB","EPOCH":"2025-12-11T06:52:12.612576","MEAN_MOTION":14.98331288,"ECCENTRICITY":0.00032474,"INCLINATION":69.9999,"RA_OF_ASC_NODE":327.226,"ARG_OF_PERICENTER":269.855,"MEAN_ANOMALY":90.2237,"EPHEMERIS_TYPE":0,"CLASSIFICATION_TYPE":"U","NORAD_CAT_ID":56497,"ELEMENT_SET_NO":999,"REV_AT_EPOCH":14299,"BSTAR":0.00027620774,"MEAN_MOTION_DOT":3.204e-5,"MEAN_MOTION_DDOT":0},{"OBJECT_NAME":"STARLINK-5522","OBJECT_ID":"2023-064BC","EPOCH":"2025-12-11T07:09:59.345856","MEAN_MOTION":14.98332762,"ECCENTRICITY":0.00030445,"INCLINATION":70.0002,"RA_OF_ASC_NODE":327.269,"ARG_OF_PERICENTER":269.9265,"MEAN_ANOMALY":90.1545,"EPHEMERIS_TYPE":0,"CLASSIFICATION_TYPE":"U","NORAD_CAT_ID":56498,"ELEMENT_SET_NO":999,"REV_AT_EPOCH":14299,"BSTAR":4.7646884e-5,"MEAN_MOTION_DOT":4.76e-6,"MEAN_MOTION_DDOT":0},{"OBJECT_NAME":"STARLINK-5775","OBJECT_ID":"2023-065A","EPOCH":"2025-12-11T05:30:05.514336","MEAN_MOTION":15.02535084,"ECCENTRICITY":0.00011356,"INCLINATION":43.0056,"RA_OF_ASC_NODE":331.3899,"ARG_OF_PERICENTER":264.5745,"MEAN_ANOMALY":95.4968,"EPHEMERIS_TYPE":0,"CLASSIFICATION_TYPE":"U","NORAD_CAT_ID":56503,"ELEMENT_SET_NO":999,"REV_AT_EPOCH":14331,"BSTAR":3.6211384e-5,"MEAN_MOTION_DOT":2.86e-6,"MEAN_MOTION_DDOT":0},{"OBJECT_NAME":"STARLINK-5716","OBJECT_ID":"2023-065B","EPOCH":"2025-12-11T00:38:06.549216","MEAN_MOTION":15.02544014,"ECCENTRICITY":0.00013174,"INCLINATION":43.0053,"RA_OF_ASC_NODE":332.4431,"ARG_OF_PERICENTER":264.4706,"MEAN_ANOMALY":95.5986,"EPHEMERIS_TYPE":0,"CLASSIFICATION_TYPE":"U","NORAD_CAT_ID":56504,"ELEMENT_SET_NO":999,"REV_AT_EPOCH":14328,"BSTAR":-5.5749166e-5,"MEAN_MOTION_DOT":-9.57e-6,"MEAN_MOTION_DDOT":0},{"OBJECT_NAME":"STARLINK-5763","OBJECT_ID":"2023-065C","EPOCH":"2025-12-11T00:34:53.095296","MEAN_MOTION":15.02550273,"ECCENTRICITY":0.00012519,"INCLINATION":43.0028,"RA_OF_ASC_NODE":332.4265,"ARG_OF_PERICENTER":266.6748,"MEAN_ANOMALY":93.3951,"EPHEMERIS_TYPE":0,"CLASSIFICATION_TYPE":"U","NORAD_CAT_ID":56505,"ELEMENT_SET_NO":999,"REV_AT_EPOCH":14328,"BSTAR":0.00022578132,"MEAN_MOTION_DOT":2.849e-5,"MEAN_MOTION_DDOT":0},{"OBJECT_NAME":"STARLINK-5340","OBJECT_ID":"2023-065D","EPOCH":"2025-12-11T05:33:39.580704","MEAN_MOTION":15.02533421,"ECCENTRICITY":0.00012762,"INCLINATION":43.0052,"RA_OF_ASC_NODE":318.3915,"ARG_OF_PERICENTER":266.2631,"MEAN_ANOMALY":93.8065,"EPHEMERIS_TYPE":0,"CLASSIFICATION_TYPE":"U","NORAD_CAT_ID":56506,"ELEMENT_SET_NO":999,"REV_AT_EPOCH":14346,"BSTAR":2.7107967e-5,"MEAN_MOTION_DOT":1.63e-6,"MEAN_MOTION_DDOT":0},{"OBJECT_NAME":"STARLINK-5333","OBJECT_ID":"2023-065E","EPOCH":"2025-12-11T05:29:36.343104","MEAN_MOTION":15.02539558,"ECCENTRICITY":0.00013119,"INCLINATION":43.005,"RA_OF_ASC_NODE":292.3474,"ARG_OF_PERICENTER":277.7594,"MEAN_ANOMALY":82.31,"EPHEMERIS_TYPE":0,"CLASSIFICATION_TYPE":"U","NORAD_CAT_ID":56507,"ELEMENT_SET_NO":999,"REV_AT_EPOCH":14376,"BSTAR":-3.9468445e-5,"MEAN_MOTION_DOT":-7.37e-6,"MEAN_MOTION_DDOT":0}]
